NORAD_CAT_ID,OBJECT_NAME,OBJECT_TYPE,EPOCH,MEAN_MOTION,ECCENTRICITY,INCLINATION,RA_OF_ASC_NODE,ARG_OF_PERICENTER,MEAN_ANOMALY,BSTAR,MEAN_MOTION_DOT,MEAN_MOTION_DDOT,TLE_LINE0,TLE_LINE1,TLE_LINE2,SEMIMAJOR_AXIS,PERIOD,APOGEE,PERIGEE,DECAYED
54806.0,STARLINK-5412,PAYLOAD,2023-03-15 13:34:53,15.08843593,8.7e-05,53.2156,242.4614,83.0885,277.0206,-6.7037e-06,-3.94e-06,0.0,0 STARLINK-5412,1 54806U 22175BA  23074.56589690 -.00000394  00000-0 -67037-5 0  9990,2 54806  53.2156 242.4614 0000870  83.0885 277.0206 15.08843593 15564,6917.869,95.437,540.336,539.133,0.0
54806.0,STARLINK-5412,PAYLOAD,2023-03-15 18:21:02,15.08850189,9.17e-05,53.2155,241.5695,88.7433,271.3664,4.9876e-05,5.06e-06,0.0,0 STARLINK-5412,1 54806U 22175BA  23074.76460972  .00000506  00000-0  49876-4 0  9996,2 54806  53.2155 241.5695 0000917  88.7433 271.3664 15.08850189 13433,6917.849,95.437,540.349,539.08,0.0
54806.0,STARLINK-5412,PAYLOAD,2023-03-15 19:56:25,15.08851859,9.15e-05,53.2155,241.2718,88.802,271.3076,6.3262e-05,7.2e-06,0.0,0 STARLINK-5412,1 54806U 22175BA  23074.83084767  .00000720  00000-0  63262-4 0  9991,2 54806  53.2155 241.2718 0000915  88.8020 271.3076 15.08851859 15600,6917.844,95.437,540.342,539.076,0.0
54806.0,STARLINK-5412,PAYLOAD,2023-03-16 03:53:22,15.08824726,2.18e-05,53.2155,239.7855,211.5057,148.5922,-0.00017033,-2.996e-05,0.0,0 STARLINK-5412,1 54806U 22175BA  23075.16206769 -.00002996  00000-0 -17033-3 0  9999,2 54806  53.2155 239.7855 0000218 211.5057 148.5922 15.08824726 13498,6917.927,95.439,539.943,539.641,0.0
54806.0,STARLINK-5412,PAYLOAD,2023-03-16 13:25:41,15.0882662,9.34e-05,53.2156,238.0012,91.5909,268.519,-0.00013391,-2.417e-05,0.0,0 STARLINK-5412,1 54806U 22175BA  23075.55951223 -.00002417  00000-0 -13391-3 0  9995,2 54806  53.2156 238.0012 0000934  91.5909 268.5190 15.08826620 15715,6917.921,95.438,540.432,539.14,0.0
54806.0,STARLINK-5412,PAYLOAD,2023-03-16 19:47:13,15.08834073,8.97e-05,53.216,236.8117,92.6044,267.5051,-9.4671e-05,-1.794e-05,0.0,0 STARLINK-5412,1 54806U 22175BA  23075.82446741 -.00001794  00000-0 -94671-4 0  9997,2 54806  53.2160 236.8117 0000897  92.6044 267.5051 15.08834073 13592,6917.899,95.438,540.384,539.143,0.0
54806.0,STARLINK-5412,PAYLOAD,2023-03-17 10:05:43,15.08790688,9.16e-05,53.2165,234.1356,123.561,236.547,0.00053689,8.256e-05,0.0,0 STARLINK-5412,1 54806U 22175BA  23076.42063814  .00008256  00000-0  53689-3 0  9991,2 54806  53.2165 234.1356 0000916 123.5610 236.5470 15.08790688 13682,6918.031,95.441,540.53,539.262,0.0
54806.0,STARLINK-5412,PAYLOAD,2023-03-17 19:38:00,15.08843523,0.0001016,53.2166,232.3515,83.6318,276.479,8.4137e-05,1.052e-05,0.0,0 STARLINK-5412,1 54806U 22175BA  23076.81805752  .00001052  00000-0  84137-4 0  9999,2 54806  53.2166 232.3515 0001016  83.6318 276.4790 15.08843523 13745,6917.87,95.437,540.437,539.032,0.0
54806.0,STARLINK-5412,PAYLOAD,2023-03-18 09:56:29,15.08840265,0.0001149,53.217,229.6744,76.4044,283.7076,-0.00013787,-2.481e-05,0.0,0 STARLINK-5412,1 54806U 22175BA  23077.41422557 -.00002481  00000-0 -13787-3 0  9995,2 54806  53.2170 229.6744 0001149  76.4044 283.7076 15.08840265 13834,6917.88,95.438,540.539,538.95,0.0
54806.0,STARLINK-5412,PAYLOAD,2023-03-18 19:28:46,15.08844482,0.0001157,53.2172,227.8908,94.398,265.7145,0.00017148,2.443e-05,0.0,0 STARLINK-5412,1 54806U 22175BA  23077.81165462  .00002443  00000-0  17148-3 0  9999,2 54806  53.2172 227.8908 0001157  94.3980 265.7145 15.08844482 13893,6917.867,95.437,540.532,538.931,0.0
54806.0,STARLINK-5412,PAYLOAD,2023-03-18 21:04:09,15.08847007,0.0001148,53.2173,227.5935,93.6829,266.4295,0.00018893,2.721e-05,0.0,0 STARLINK-5412,1 54806U 22175BA  23077.87789224  .00002721  00000-0  18893-3 0  9990,2 54806  53.2173 227.5935 0001148  93.6829 266.4295 15.08847007 16067,6917.859,95.437,540.518,538.93,0.0
54806.0,STARLINK-5412,PAYLOAD,2023-03-19 03:25:43,15.08830622,5.54e-05,53.2176,226.4046,79.4379,280.6675,-3.6536e-05,-8.69e-06,0.0,0 STARLINK-5412,1 54806U 22175BA  23078.14286792 -.00000869  00000-0 -36536-4 0  9991,2 54806  53.2176 226.4046 0000554  79.4379 280.6675 15.08830622 13942,6917.909,95.438,540.157,539.391,0.0
54806.0,STARLINK-5412,PAYLOAD,2023-03-19 12:58:02,15.0883296,0.0001085,53.2166,224.6214,69.8754,290.2355,-8.0832e-05,-1.574e-05,0.0,0 STARLINK-5412,1 54806U 22175BA  23078.54031122 -.00001574  00000-0 -80832-4 0  9992,2 54806  53.2166 224.6214 0001085  69.8754 290.2355 15.08832960 16164,6917.902,95.438,540.517,539.016,0.0
54806.0,STARLINK-5412,PAYLOAD,2023-03-19 19:19:34,15.08845675,0.0001291,53.2171,223.4305,84.9199,275.1941,-1.5922e-05,-5.41e-06,0.0,0 STARLINK-5412,1 54806U 22175BA  23078.80526072 -.00000541  00000-0 -15922-4 0  9995,2 54806  53.2171 223.4305 0001291  84.9199 275.1941 15.08845675 14043,6917.863,95.437,540.621,538.835,0.0
54806.0,STARLINK-5412,PAYLOAD,2023-03-20 12:48:49,15.08839811,0.0001345,53.2176,220.16,77.6449,282.4694,-1.217e-05,-4.82e-06,0.0,0 STARLINK-5412,1 54806U 22175BA  23079.53390406 -.00000482  00000-0 -12170-4 0  9992,2 54806  53.2176 220.1600 0001345  77.6449 282.4694 15.08839811 14150,6917.881,95.438,540.676,538.816,0.0
54806.0,STARLINK-5412,PAYLOAD,2023-03-20 15:59:35,15.0884522,0.0001356,53.2176,219.5656,72.9309,287.1832,3.2461e-05,2.29e-06,0.0,0 STARLINK-5412,1 54806U 22175BA  23079.66637883  .00000229  00000-0  32461-4 0  9991,2 54806  53.2176 219.5656 0001356  72.9309 287.1832 15.08845220 16337,6917.864,95.437,540.667,538.791,0.0
54806.0,STARLINK-5412,PAYLOAD,2023-03-20 19:10:21,15.0885222,0.0001392,53.2176,218.9707,71.392,288.7223,4.7762e-06,-2.12e-06,0.0,0 STARLINK-5412,1 54806U 22175BA  23079.79885479 -.00000212  00000-0  47762-5 0  9995,2 54806  53.2176 218.9707 0001392  71.3920 288.7223 15.08852220 14190,6917.843,95.437,540.671,538.745,0.0
54806.0,STARLINK-5412,PAYLOAD,2023-03-21 12:39:37,15.08823457,0.0001291,53.2171,215.6991,74.4577,285.6558,-8.5335e-05,-1.645e-05,0.0,0 STARLINK-5412,1 54806U 22175BA  23080.52751891 -.00001645  00000-0 -85335-4 0  9997,2 54806  53.2171 215.6991 0001291  74.4577 285.6558 15.08823457 14304,6917.931,95.439,540.689,538.903,0.0
54806.0,STARLINK-5412,PAYLOAD,2023-03-21 20:36:32,15.08837655,0.0001389,53.2176,214.2131,67.9664,292.1475,-4.528e-05,-1.008e-05,0.0,0 STARLINK-5412,1 54806U 22175BA  23080.85871047 -.00001008  00000-0 -45280-4 0  9997,2 54806  53.2176 214.2131 0001389  67.9664 292.1475 15.08837655 16513,6917.888,95.438,540.713,538.792,0.0
54806.0,STARLINK-5412,PAYLOAD,2023-03-22 12:30:23,15.08846905,0.0001493,53.2184,211.2405,68.1096,292.0055,3.5972e-05,2.85e-06,0.0,0 STARLINK-5412,1 54806U 22175BA  23081.52110446  .00000285  00000-0  35972-4 0  9992,2 54806  53.2184 211.2405 0001493  68.1096 292.0055 15.08846905 14453,6917.859,95.437,540.757,538.691,0.0
54806.0,STARLINK-5412,PAYLOAD,2023-03-22 18:51:54,15.08858711,0.0001369,53.2179,210.0501,62.0939,298.0192,0.00012845,1.758e-05,0.0,0 STARLINK-5412,1 54806U 22175BA  23081.78605157  .00001758  00000-0  12845-3 0  9997,2 54806  53.2179 210.0501 0001369  62.0939 298.0192 15.08858711 14492,6917.823,95.436,540.635,538.741,0.0
54806.0,STARLINK-5412,PAYLOAD,2023-03-23 12:21:10,15.0883795,0.0001153,53.2168,206.7788,76.3633,283.7488,3.6964e-05,3e-06,0.0,0 STARLINK-5412,1 54806U 22175BA  23082.51470811  .00000300  00000-0  36964-4 0  9997,2 54806  53.2168 206.7788 0001153  76.3633 283.7488 15.08837950 14603,6917.887,95.438,540.549,538.954,0.0
54806.0,STARLINK-5412,PAYLOAD,2023-03-23 13:56:33,15.08840844,0.0001528,53.2174,206.4832,58.9954,301.1188,3.4267e-05,2.57e-06,0.0,0 STARLINK-5412,1 54806U 22175BA  23082.58094774  .00000257  00000-0  34267-4 0  9999,2 54806  53.2174 206.4832 0001528  58.9954 301.1188 15.08840844 16773,6917.878,95.438,540.8,538.686,0.0
54806.0,STARLINK-5412,PAYLOAD,2023-03-24 12:11:56,15.08855691,0.0001583,53.2193,202.32,91.6333,268.484,5.5592e-05,5.97e-06,0.0,0 STARLINK-5412,1 54806U 22175BA  23083.50829518  .00000597  00000-0  55592-4 0  9995,2 54806  53.2193 202.3200 0001583  91.6333 268.4840 15.08855691 14756,6917.832,95.437,540.793,538.602,0.0
54806.0,STARLINK-5412,PAYLOAD,2023-03-24 13:47:19,15.0885724,0.0001657,53.2195,202.0225,101.0447,259.0732,1.2693e-05,-8.6e-07,0.0,0 STARLINK-5412,1 54806U 22175BA  23083.57453378 -.00000086  00000-0  12693-4 0  9998,2 54806  53.2195 202.0225 0001657 101.0447 259.0732 15.08857240 16925,6917.828,95.436,540.839,538.546,0.0
54806.0,STARLINK-5412,PAYLOAD,2023-03-24 15:22:42,15.08865669,0.0001322,53.2181,201.7245,74.5245,285.5893,5.9926e-05,6.67e-06,0.0,0 STARLINK-5412,1 54806U 22175BA  23083.64076715  .00000667  00000-0  59926-4 0  9996,2 54806  53.2181 201.7245 0001322  74.5245 285.5893 15.08865669 14774,6917.802,95.436,540.581,538.752,0.0
54806.0,STARLINK-5412,PAYLOAD,2023-03-24 20:08:51,15.08868096,0.0001361,53.2167,200.8298,72.0044,288.1096,0.00011224,1.5e-05,0.0,0 STARLINK-5412,1 54806U 22175BA  23083.83948111  .00001500  00000-0  11224-3 0  9990,2 54806  53.2167 200.8298 0001361  72.0044 288.1096 15.08868096 16963,6917.795,95.436,540.601,538.718,0.0
54806.0,STARLINK-5412,PAYLOAD,2023-03-25 00:55:05,15.08798683,7.45e-05,53.2183,199.9409,36.5345,323.5698,-0.0005598,-9.175e-05,0.0,0 STARLINK-5412,1 54806U 22175BA  23084.03826302 -.00009175  00000-0 -55980-3 0  9995,2 54806  53.2183 199.9409 0000745  36.5345 323.5698 15.08798683 14837,6918.007,95.44,540.387,539.356,0.0
54806.0,STARLINK-5412,PAYLOAD,2023-03-25 12:02:48,15.08799941,0.0001833,53.2188,197.8606,66.9481,293.1705,-0.00031147,-5.236e-05,0.0,0 STARLINK-5412,1 54806U 22175BA  23084.50195016 -.00005236  00000-0 -31147-3 0  9991,2 54806  53.2188 197.8606 0001833  66.9481 293.1705 15.08799941 14902,6918.003,95.44,541.136,538.6,0.0
54806.0,STARLINK-5412,PAYLOAD,2023-03-25 15:13:34,15.08808418,0.0001856,53.2191,197.2655,57.8886,302.2286,-0.0002353,-4.028e-05,0.0,0 STARLINK-5412,1 54806U 22175BA  23084.63442549 -.00004028  00000-0 -23530-3 0  9996,2 54806  53.2191 197.2655 0001856  57.8886 302.2286 15.08808418 14925,6917.977,95.44,541.126,538.558,0.0
